ONEWEB-0136             
1 47282U 20100AA  25124.86528628 -.00000184  00000+0 -54575-3 0  9998
2 47282  87.8869  71.8713 0001628  92.0558 268.0757 13.12440265211102
ONEWEB-0137             
1 47283U 20100AB  25124.82312017  .00000182  00000+0  47174-3 0  9991
2 47283  87.8864  71.8893 0002168  85.3183 274.8193 13.12443435211006
ONEWEB-0138             
1 47284U 20100AC  25124.87826176 -.00000707  00000+0 -20012-2 0  9999
2 47284  87.8864  71.8897 0001910  84.0929 276.0417 13.12443283211092
ONEWEB-0139             
1 47285U 20100AD  25124.84111458  .00000479  00000+0  12970-2 0  9995
2 47285  87.8870  71.8858 0001981  81.3443 278.7910 13.12441905211160
ONEWEB-0140             
1 47286U 20100AE  25124.87178099 -.00000323  00000+0 -93257-3 0  9991
2 47286  87.8864  71.8680 0001874  83.2121 276.9220 13.12442270211139
ONEWEB-0141             
1 47287U 20100AF  25124.84083864  .00000450  00000+0  12168-2 0  9994
2 47287  87.8866  71.8910 0002322  86.4167 273.7227 13.12442263211114
ONEWEB-0142             
1 47288U 20100AG  25124.82974813  .00000359  00000+0  96294-3 0  9997
2 47288  87.8883  71.8873 0002134  89.7220 270.4153 13.12443261211109
ONEWEB-0143             
1 47289U 20100AH  25124.83934648  .00000497  00000+0  13462-2 0  9999
2 47289  87.8867  71.8959 0002015  81.9553 278.1805 13.12441968211086
